     2.10           N: GPS NAV DATA                         RINEX VERSION / TYPE
teqc  2013Mar15     Kim Kangas          20140503 00:21:59UTCPGM / RUN BY / DATE
    1.6764D-08  7.1148D-09 -1.2078D-08 -3.8447D-09          ION ALPHA
    1.1059D+05  3.1291D+04 -1.3280D+04 -6.3409D+03          ION BETA
    9.313225746150D-10 5.329070518200D-15   589824     1790 DELTA-UTC: A0,A1,T,W
    16                                                      LEAP SECONDS
Solaris 5.10|UltraSparc IIIi|cc -m64 SS12.1|=+|*Sparc       COMMENT
     2.10           NAVIGATION                              COMMENT
hgextrnav           Kim Kangas          05/03/2014 00:06:15 COMMENT
                                                            END OF HEADER
18 14  5  2  8  0  0.0 3.167479299010D-04 2.273736754430D-12 0.000000000000D+00
    3.300000000000D+01-1.928125000000D+01 5.357008855210D-09 1.822043300770D+00
   -1.257285475730D-06 1.517836807760D-02 9.095296263690D-06 5.153691766740D+03
    4.608000000000D+05-2.328306436540D-07-1.622162051850D-01-3.129243850710D-07
    9.262554705780D-01 1.894375000000D+02-2.044368877310D+00-8.306417424200D-09
   -5.393081786360D-10 1.000000000000D+00 1.790000000000D+03 0.000000000000D+00
    2.400000000000D+00 0.000000000000D+00-1.117587089540D-08 3.300000000000D+01
    4.597260000000D+05 4.000000000000D+00
 2 14  5  2 10  0  0.0 4.930011928080D-04 2.160049916710D-12 0.000000000000D+00
    8.700000000000D+01 1.150000000000D+01 5.601661903130D-09-2.488175220090D-01
    8.009374141690D-07 1.349773805120D-02 5.701556801800D-06 5.153588048930D+03
    4.680000000000D+05 4.097819328310D-08-1.225186458300D+00 1.620501279830D-07
    9.389701582760D-01 2.611562500000D+02-2.432963991040D+00-8.659646423320D-09
    2.800116636100D-10 1.000000000000D+00 1.790000000000D+03 0.000000000000D+00
    2.400000000000D+00 0.000000000000D+00-2.048909664150D-08 8.700000000000D+01
    4.608060000000D+05 4.000000000000D+00
 5 14  5  2 10  0  0.0-3.754319623110D-04 2.387423592150D-12 0.000000000000D+00
    7.600000000000D+01-1.609375000000D+01 5.074139929720D-09 2.089170996570D+00
   -7.282942533490D-07 3.562205587510D-03 8.722767233850D-06 5.153581724170D+03
    4.680000000000D+05-1.024454832080D-07-1.575460352480D-01 5.960464477540D-08
    9.476919427390D-01 2.065937500000D+02 3.207082554260D-01-8.156768333570D-09
   -4.868059917090D-10 1.000000000000D+00 1.790000000000D+03 0.000000000000D+00
    2.400000000000D+00 0.000000000000D+00-1.024454832080D-08 7.600000000000D+01
    4.608060000000D+05 4.000000000000D+00
 6 14  5  2 10  0  0.0-1.577613875270D-04-2.046363078990D-12 0.000000000000D+00
    1.090000000000D+02-1.072187500000D+02 5.124499170250D-09 2.198731536990D+00
   -5.593523383140D-06 6.916851853020D-03 7.061287760730D-06 5.153590633390D+03
    4.680000000000D+05-6.705522537230D-08 3.003166618240D+00-1.285225152970D-07
    9.811354979000D-01 2.549687500000D+02 8.570229792700D-01-7.827468902640D-09
   -1.682212928060D-10 1.000000000000D+00 1.790000000000D+03 0.000000000000D+00
    4.850000000000D+00 6.300000000000D+01-1.909211277960D-08 1.090000000000D+02
    4.608060000000D+05 4.000000000000D+00
10 14  5  2  9 59 44.0-1.238835975530D-04-1.477928890380D-12 0.000000000000D+00
    1.300000000000D+01-1.450000000000D+01 5.074139929720D-09 2.343353037720D+00
   -9.201467037200D-07 1.352597330700D-02 9.067356586460D-06 5.153725526810D+03
    4.679840000000D+05-7.078051567080D-08-1.401430549840D-01-2.849847078320D-07
    9.425020170260D-01 1.945937500000D+02 8.634988011970D-01-7.982118201550D-09
   -4.910918845200D-10 1.000000000000D+00 1.790000000000D+03 0.000000000000D+00
    2.400000000000D+00 0.000000000000D+00-2.793967723850D-09 1.300000000000D+01
    4.608060000000D+05 4.000000000000D+00
12 14  5  2 10  0  0.0 2.023014239970D-04 2.387423592150D-12 0.000000000000D+00
    5.300000000000D+01-1.103750000000D+02 3.667652772460D-09-1.918326523970D+00
   -5.709007382390D-06 5.119256558830D-03 6.761401891710D-06 5.153637842180D+03
    4.680000000000D+05-6.332993507390D-08 3.027090542680D+00-9.313225746150D-08
    9.876536244920D-01 2.634687500000D+02 4.108094428340D-01-7.670319499600D-09
   -1.160762636140D-10 1.000000000000D+00 1.790000000000D+03 0.000000000000D+00
    2.400000000000D+00 0.000000000000D+00-1.210719347000D-08 5.300000000000D+01
    4.608060000000D+05 4.000000000000D+00
15 14  5  2 10  0  0.0-1.771692186590D-04-2.160049916710D-12 0.000000000000D+00
    6.400000000000D+01 8.462500000000D+01 4.985564811640D-09 5.824700028310D-01
    4.580244421960D-06 6.244663498360D-03 9.022653102870D-06 5.153686630250D+03
    4.680000000000D+05 5.215406417850D-08 8.565315704580D-01 9.126961231230D-08
    9.371955947580D-01 1.880625000000D+02 2.754915232360D-01-8.277130489990D-09
   -1.428630936780D-10 1.000000000000D+00 1.790000000000D+03 0.000000000000D+00
    2.400000000000D+00 0.000000000000D+00-1.024454832080D-08 6.400000000000D+01
    4.608060000000D+05 4.000000000000D+00
18 14  5  2 10  0  0.0 3.167646937070D-04 2.273736754430D-12 0.000000000000D+00
    3.400000000000D+01-2.112500000000D+01 5.347008438650D-09 2.872222213660D+00
   -1.166015863420D-06 1.517854945270D-02 8.732080459590D-06 5.153691469190D+03
    4.680000000000D+05 3.352761268620D-08-1.622748989210D-01-2.607703208920D-07
    9.262523662660D-01 1.893125000000D+02-2.044372164490D+00-8.117123825070D-09
   -5.428797559780D-10 1.000000000000D+00 1.790000000000D+03 0.000000000000D+00
    2.400000000000D+00 0.000000000000D+00-1.117587089540D-08 3.400000000000D+01
    4.608060000000D+05 4.000000000000D+00
21 14  5  2 10  0  0.0-3.587091341610D-04-2.273736754430D-12 0.000000000000D+00
    9.500000000000D+01 9.875000000000D+00 5.540230772850D-09-2.436509330580D+00
    2.142041921620D-07 2.145628724250D-02 4.719942808150D-06 5.153759147640D+03
    4.680000000000D+05 3.576278686520D-07-1.207665227440D+00 5.587935447690D-09
    9.319086190600D-01 2.669062500000D+02-2.031173667840D+00-8.267130073440D-09
    4.271606500990D-10 1.000000000000D+00 1.790000000000D+03 0.000000000000D+00
    2.400000000000D+00 0.000000000000D+00-1.117587089540D-08 9.500000000000D+01
    4.608060000000D+05 4.000000000000D+00
25 14  5  2 10  0  0.0 2.308050170540D-05 7.958078640510D-13 0.000000000000D+00
    3.600000000000D+01-1.059687500000D+02 3.891947829530D-09-2.689783148290D+00
   -5.446374416350D-06 3.553432296030D-03 6.675720214840D-06 5.153623598100D+03
    4.680000000000D+05-5.215406417850D-08 2.984971701900D+00-1.117587089540D-08
    9.763516358220D-01 2.599375000000D+02 6.545833733620D-01-7.812825435540D-09
   -1.450060400840D-10 1.000000000000D+00 1.790000000000D+03 0.000000000000D+00
    2.400000000000D+00 0.000000000000D+00 5.122274160390D-09 3.600000000000D+01
    4.608060000000D+05 4.000000000000D+00
26 14  5  2 10  0  0.0 9.127613157030D-05-1.159605744760D-11 0.000000000000D+00
    5.200000000000D+01 9.578125000000D+01 4.213746948050D-09 4.442229160100D-02
    5.260109901430D-06 2.142385486510D-02 8.989125490190D-06 5.153695489880D+03
    4.680000000000D+05-2.756714820860D-07 9.907491781660D-01 1.881271600720D-07
    9.753327777480D-01 2.162812500000D+02 1.281118041380D+00-8.238557454700D-09
   -2.464388365950D-11 1.000000000000D+00 1.790000000000D+03 0.000000000000D+00
    2.400000000000D+00 0.000000000000D+00-6.053596735000D-09 5.200000000000D+01
    4.608060000000D+05 4.000000000000D+00
29 14  5  2 10  0  0.0 5.296138115230D-04 2.728484105320D-12 0.000000000000D+00
    7.300000000000D+01-1.590625000000D+01 4.081955744130D-09-2.232351256740D+00
   -7.059425115590D-07 1.632800675000D-03 1.005828380580D-05 5.153718790050D+03
    4.680000000000D+05 3.725290298460D-09-2.196788458470D+00 9.313225746150D-09
    9.691167978670D-01 1.896562500000D+02-8.937150566710D-01-7.738179469090D-09
    5.443083869150D-10 1.000000000000D+00 1.790000000000D+03 0.000000000000D+00
    2.400000000000D+00 0.000000000000D+00-9.778887033460D-09 7.300000000000D+01
    4.608060000000D+05 4.000000000000D+00
 9 14  5  2  9 59 44.0 3.245063126090D-04 2.842170943040D-12 0.000000000000D+00
    2.900000000000D+01 3.759375000000D+01 4.260534611230D-09-4.284195825380D-01
    1.894310116770D-06 1.715453516230D-02 2.697110176090D-06 5.153679115300D+03
    4.679840000000D+05-3.259629011150D-07 1.943834874990D+00 3.725290298460D-08
    9.818738268030D-01 3.419687500000D+02 1.797313715160D+00-8.445351782800D-09
    1.275053111080D-10 1.000000000000D+00 1.790000000000D+03 0.000000000000D+00
    2.400000000000D+00 0.000000000000D+00-6.053596735000D-09 2.900000000000D+01
    4.624260000000D+05 4.000000000000D+00
21 14  5  2  9 59 44.0-3.587095998230D-04-2.273736754430D-12 0.000000000000D+00
    2.500000000000D+01 9.875000000000D+00 5.540230772850D-09-2.438842901420D+00
    2.142041921620D-07 2.145628503060D-02 4.719942808150D-06 5.153759140010D+03
    4.679840000000D+05 3.576278686520D-07-1.207665100170D+00 3.725290298460D-09
    9.319086190600D-01 2.669062500000D+02-2.031173708800D+00-8.266772915700D-09
    4.271606500990D-10 1.000000000000D+00 1.790000000000D+03 0.000000000000D+00
    2.400000000000D+00 0.000000000000D+00-1.117587089540D-08 2.500000000000D+01
    4.639560000000D+05 4.000000000000D+00
16 14  5  2 10  0  0.0-2.204636111860D-04 1.818989403550D-12 0.000000000000D+00
    1.300000000000D+01-1.090000000000D+02 3.711226016030D-09 2.212612691190D+00
   -5.627050995830D-06 7.750593591480D-03 7.577240467070D-06 5.153585231780D+03
    4.680000000000D+05-1.173466444020D-07 3.045622745020D+00 7.636845111850D-08
    9.882679286630D-01 2.500937500000D+02 1.919789487400D-01-7.748894201120D-09
   -2.425101015190D-10 1.000000000000D+00 1.790000000000D+03 0.000000000000D+00
    2.400000000000D+00 0.000000000000D+00-1.024454832080D-08 1.300000000000D+01
    4.641360000000D+05 4.000000000000D+00
